{
    "satellites": [
        {
            "name": "starlink320",
            "title": "Starlink-320 (G10-51) (new)",
            "tle": [
                "1 70786C 25257AC  25313.45604167  .00783730  00000+0  11297-2 0  3135",
                "2 70786  53.1576  67.9064 0007128 286.5822  39.6833 16.03804921    17"
            ],
            "stdMag": 5,
            "noradId": "70786",
            "tleUrl": "http://celestrak.org/NORAD/elements/supplemental/sup-gp.php?FILE=starlink&FORMAT=tle",
            "launchDate": "2025-11-09T08:10:10.000Z",
            "active": true,
            "batch": [
                {
                    "noradId": "70786",
                    "tle": [
                        "1 70786C 25257AC  25313.45604167  .00783730  00000+0  11297-2 0  3135",
                        "2 70786  53.1576  67.9064 0007128 286.5822  39.6833 16.03804921    17"
                    ]
                },
                {
                    "noradId": "70785",
                    "tle": [
                        "1 70785C 25257AB  25313.45395833  .00791290  00000+0  11406-2 0  3133",
                        "2 70785  53.1576  67.9171 0007147 286.6640  27.5649 16.03796737    11"
                    ]
                },
                {
                    "noradId": "70788",
                    "tle": [
                        "1 70788C 25257AE  25313.45743056  .00747780  00000+0  10799-2 0  3139",
                        "2 70788  53.1576  67.8992 0007084 286.3292  47.9614 16.03810659    12"
                    ]
                },
                {
                    "noradId": "70784",
                    "tle": [
                        "1 70784C 25257AA  25313.45534722  .00777390  00000+0  11218-2 0  3130",
                        "2 70784  53.1576  67.9099 0007159 286.5214  35.7297 16.03792662    11"
                    ]
                },
                {
                    "noradId": "70782",
                    "tle": [
                        "1 70782C 25257Y   25313.45465278  .00777000  00000+0  11229-2 0  3137",
                        "2 70782  53.1576  67.9134 0007258 286.4119  31.8211 16.03766402    18"
                    ]
                },
                {
                    "noradId": "70780",
                    "tle": [
                        "1 70780C 25257W   25313.45604167  .00793430  00000+0  11464-2 0  3133",
                        "2 70780  53.1576  67.9063 0007320 286.3613  39.8914 16.03754058    17"
                    ]
                },
                {
                    "noradId": "70779",
                    "tle": [
                        "1 70779C 25257V   25313.45465278  .00786680  00000+0  11375-2 0  3139",
                        "2 70779  53.1576  67.9135 0007348 286.2203  32.0076 16.03747038    13"
                    ]
                },
                {
                    "noradId": "70776",
                    "tle": [
                        "1 70776C 25257S   25313.45395833  .00826820  00000+0  11942-2 0  3136",
                        "2 70776  53.1576  67.9174 0007450 286.2713  27.9389 16.03724281    18"
                    ]
                },
                {
                    "noradId": "70781",
                    "tle": [
                        "1 70781C 25257X   25313.45604167  .00740770  00000+0  10731-2 0  3139",
                        "2 70781  53.1576  67.9062 0007256 286.0268  40.2287 16.03763633    16"
                    ]
                },
                {
                    "noradId": "70778",
                    "tle": [
                        "1 70778C 25257U   25313.45604167  .00781480  00000+0  11307-2 0  3138",
                        "2 70778  53.1576  67.9064 0007366 286.0771  40.1723 16.03741840    15"
                    ]
                },
                {
                    "noradId": "70775",
                    "tle": [
                        "1 70775C 25257R   25313.45395833  .00811530  00000+0  11738-2 0  3130",
                        "2 70775  53.1576  67.9174 0007484 286.0657  28.1423 16.03715358    16"
                    ]
                },
                {
                    "noradId": "70787",
                    "tle": [
                        "1 70787C 25257AD  25313.45743056  .00589830  00000+0  85983-3 0  3136",
                        "2 70787  53.1577  67.8992 0007099 285.3515  48.9392 16.03811469    19"
                    ]
                },
                {
                    "noradId": "70774",
                    "tle": [
                        "1 70774C 25257Q   25313.45534722  .00785320  00000+0  11382-2 0  3133",
                        "2 70774  53.1576  67.9102 0007509 285.8410  36.3879 16.03707747    17"
                    ]
                },
                {
                    "noradId": "70777",
                    "tle": [
                        "1 70777C 25257T   25313.45743056  .00724560  00000+0  10525-2 0  3135",
                        "2 70777  53.1576  67.8993 0007388 285.6099  48.6603 16.03732392    18"
                    ]
                },
                {
                    "noradId": "70771",
                    "tle": [
                        "1 70771C 25257M   25313.45465278  .00810070  00000+0  11740-2 0  3138",
                        "2 70771  53.1576  67.9140 0007616 285.7449  32.4658 16.03682294    17"
                    ]
                },
                {
                    "noradId": "70772",
                    "tle": [
                        "1 70772C 25257N   25313.45465278  .00787860  00000+0  11428-2 0  3132",
                        "2 70772  53.1576  67.9139 0007576 285.6979  32.5151 16.03690633    13"
                    ]
                },
                {
                    "noradId": "70773",
                    "tle": [
                        "1 70773C 25257P   25313.45534722  .00766740  00000+0  11132-2 0  3130",
                        "2 70773  53.1576  67.9103 0007535 285.6016  36.6249 16.03697426    12"
                    ]
                },
                {
                    "noradId": "70783",
                    "tle": [
                        "1 70783C 25257Z   25313.45673611  .00589380  00000+0  86050-3 0  3137",
                        "2 70783  53.1577  67.9027 0007175 285.1843  45.0884 16.03785131    12"
                    ]
                },
                {
                    "noradId": "70764",
                    "tle": [
                        "1 70764C 25257E   25313.45465278  .00788270  00000+0  11477-2 0  3133",
                        "2 70764  53.1576  67.9142 0007833 285.0894  33.1066 16.03624913    14"
                    ]
                },
                {
                    "noradId": "70766",
                    "tle": [
                        "1 70766C 25257G   25313.45673611  .00754000  00000+0  10991-2 0  3131",
                        "2 70766  53.1576  67.9034 0007767 285.0548  45.1789 16.03639297    14"
                    ]
                },
                {
                    "noradId": "70765",
                    "tle": [
                        "1 70765C 25257F   25313.45534722  .00766330  00000+0  11170-2 0  3138",
                        "2 70765  53.1576  67.9106 0007805 285.0689  37.1394 16.03627578    14"
                    ]
                },
                {
                    "noradId": "70761",
                    "tle": [
                        "1 70761C 25257B   25313.45395833  .00815860  00000+0  11878-2 0  3130",
                        "2 70761  53.1576  67.9179 0007954 285.0998  29.0777 16.03596340    15"
                    ]
                },
                {
                    "noradId": "70763",
                    "tle": [
                        "1 70763C 25257D   25313.45604167  .00776840  00000+0  11325-2 0  3136",
                        "2 70763  53.1576  67.9071 0007879 284.9388  41.2767 16.03613495    11"
                    ]
                },
                {
                    "noradId": "70768",
                    "tle": [
                        "1 70768C 25257J   25313.45465278  .00641480  00000+0  93987-3 0  3135",
                        "2 70768  53.1577  67.9141 0007663 284.2741  33.9328 16.03668278    12"
                    ]
                },
                {
                    "noradId": "70762",
                    "tle": [
                        "1 70762C 25257C   25313.45743056  .00737680  00000+0  10784-2 0  3133",
                        "2 70762  53.1576  67.8999 0007894 284.6355  49.6008 16.03606939    11"
                    ]
                },
                {
                    "noradId": "70769",
                    "tle": [
                        "1 70769C 25257K   25313.45743056  .00590030  00000+0  86703-3 0  3131",
                        "2 70769  53.1576  67.8997 0007643 284.1369  50.1166 16.03671172    11"
                    ]
                },
                {
                    "noradId": "70760",
                    "tle": [
                        "1 70760C 25257A   25313.45812500  .00729750  00000+0  10681-2 0  3137",
                        "2 70760  53.1576  67.8965 0007929 284.4121  53.8321 16.03593848    19"
                    ]
                },
                {
                    "noradId": "70770",
                    "tle": [
                        "1 70770C 25257L   25313.45465278  .00510130  00000+0  75302-3 0  3136",
                        "2 70770  53.1577  67.9141 0007601 283.8816  34.3281 16.03675886    11"
                    ]
                }
            ]
        }
    ],
    "config": {}
}